OBJECT_NAME,OBJECT_ID,EPOCH,MEAN_MOTION,ECCENTRICITY,INCLINATION,RA_OF_ASC_NODE,ARG_OF_PERICENTER,MEAN_ANOMALY,EPHEMERIS_TYPE,CLASSIFICATION_TYPE,NORAD_CAT_ID,ELEMENT_SET_NO,REV_AT_EPOCH,BSTAR,MEAN_MOTION_DOT,MEAN_MOTION_DDOT
BEIDOU-2 G3,2010-024A,2026-06-26T02:39:58.099968,1.00271125,.0008089,4.5373,61.4851,355.2854,337.1434,0,U,36590,999,5885,0,-.129E-5,0
BADR-5,2010-025A,2026-06-26T04:08:38.929920,1.00267191,.0003846,0.0479,145.3195,42.9443,178.7366,0,U,36592,999,5330,0,.165E-5,0
COMS 1,2010-032A,2026-06-25T23:02:44.049120,0.99166082,.001189,4.8275,75.2556,13.2572,209.7173,0,U,36744,999,5117,0,.58E-6,0
ARABSAT-5A,2010-032B,2026-06-26T04:08:38.929920,1.00271495,.0005633,0.0691,51.4559,60.6291,254.8598,0,U,36745,999,5873,0,.164E-5,0
ECHOSTAR 15,2010-034A,2026-06-26T05:23:32.307072,1.00272232,.0002233,0.0123,6.9353,72.3267,157.1587,0,U,36792,999,5841,0,.11E-6,0
BEIDOU-2 IGSO-1,2010-036A,2026-06-25T21:39:31.766400,1.00269992,.0059012,54.3048,162.8805,225.3330,318.2635,0,U,36828,999,5818,0,-.51E-6,0
NILESAT 201,2010-037A,2026-06-26T03:57:54.957888,1.00271345,.0005136,0.0396,143.9554,336.0609,206.7587,0,U,36830,999,5846,0,-.47E-6,0
RASCOM-QAF 1R,2010-037B,2026-06-26T04:00:47.184192,1.00271891,.0006598,0.0191,66.9577,21.9948,248.4310,0,U,36831,999,5839,0,.29E-6,0
AEHF-1 (USA 214),2010-039A,2026-06-24T19:37:56.904672,1.00279243,.00042294,8.2384,67.9563,11.1655,158.4174,0,U,36868,999,5373,0,.15E-5,0
XM-5,2010-053A,2026-06-25T22:19:09.751008,1.00274842,.0002666,0.0631,271.4123,286.2712,295.9726,0,U,37185,999,5757,0,-.13E-6,0
BSAT-3B,2010-056B,2026-06-25T23:23:19.575168,1.00272693,.0001903,0.0748,245.7608,280.6181,208.3998,0,U,37207,999,5218,0,-.339E-5,0
BEIDOU-2 G4,2010-057A,2026-06-25T20:12:19.340928,1.00271416,.0004806,3.6689,68.9041,193.4242,114.7089,0,U,37210,999,5737,0,-.105E-5,0
SKYTERRA 1,2010-061A,2026-06-26T03:50:38.440896,1.00272947,.0002443,5.1440,50.8477,23.3204,156.4644,0,U,37218,999,5728,0,-.112E-5,0
HYLAS 1,2010-065A,2026-06-24T00:37:23.176416,1.00273914,.00010524,5.6614,72.9389,336.6605,245.7390,0,U,37237,999,695,0,.93E-6,0
INTELSAT 17 (IS-17),2010-065B,2026-06-26T02:36:05.969952,1.00271818,.0002464,0.0086,69.5097,24.6648,285.0863,0,U,37238,999,5333,0,.9E-7,0
BEIDOU-2 IGSO-2,2010-068A,2026-06-24T16:14:12.098688,1.00281062,.00560425,47.5326,271.7373,213.3814,139.3528,0,U,37256,999,5686,0,-.223E-5,0
EUTELSAT KA-SAT 9A,2010-069A,2026-06-25T12:38:21.733152,1.00270328,.0003724,0.0599,12.0459,120.3470,339.8602,0,U,37258,999,4409,0,.71E-6,0
HISPASAT 30W-5,2010-070A,2026-06-26T03:58:13.172736,1.00270028,.0005846,0.0376,134.6837,336.3100,192.8387,0,U,37264,999,5327,0,-.205E-5,0
KOREASAT 6,2010-070B,2026-06-25T19:27:38.691072,1.00270457,.0002715,0.0256,12.1538,93.7555,259.8187,0,U,37265,999,5685,0,0,0
BEIDOU-2 IGSO-3,2011-013A,2026-06-25T13:06:53.019936,1.00266124,.0035058,62.4191,40.0714,184.1159,353.6243,0,U,37384,999,5574,0,-.187E-5,0
INTELSAT 28 (IS-28),2011-016A,2026-06-26T04:47:11.990112,1.00271814,.0004006,1.8295,82.5212,11.1010,220.7734,0,U,37392,999,5337,0,-.216E-5,0
YAHSAT 1A,2011-016B,2026-06-25T17:58:54.244416,1.00269060,.000378,0.0232,24.8604,85.6545,125.5822,0,U,37393,999,4249,0,0,0
SBIRS GEO-1 (USA 230),2011-019A,2026-06-26T04:14:45.843936,1.00272346,.0001947,4.5552,53.1193,34.9555,301.7212,0,U,37481,999,5548,0,.106E-5,0
TELSTAR 14R,2011-021A,2026-06-26T01:59:21.473088,1.00271814,.000241,0.0414,80.0369,350.2021,170.8224,0,U,37602,999,5592,0,-.269E-5,0
GSAT-8,2011-022A,2026-06-26T04:15:38.261088,1.00272810,.0001659,2.1543,81.7242,186.2275,125.3313,0,U,37605,999,5330,0,.94E-6,0
ST-2,2011-022B,2026-06-26T00:59:44.316096,1.00271860,.0001771,0.0222,4.0070,95.2733,277.8284,0,U,37606,999,5536,0,0,0
ZHONGXING-10,2011-026A,2026-06-26T02:41:27.956832,1.00273005,.0003718,1.0706,84.1182,5.0562,310.9472,0,U,37677,999,5508,0,-.179E-5,0
SES-3,2011-035A,2026-06-26T03:50:38.440896,1.00269473,.0002575,1.3500,83.0010,4.3036,141.6306,0,U,37748,999,5468,0,-.92E-6,0
KAZSAT-2,2011-035B,2026-06-25T14:37:38.722080,1.00269411,.0001695,0.0032,310.5968,194.7433,74.3197,0,U,37749,999,5348,0,-.187E-5,0
BEIDOU-2 IGSO-4,2011-038A,2026-06-25T16:34:52.141728,1.00283882,.0159513,54.6027,165.5967,231.5189,219.1661,0,U,37763,999,5473,0,.31E-6,0
ASTRA 1N,2011-041A,2026-06-26T04:05:24.242208,1.00270091,.0005903,0.0802,36.6843,58.2315,259.9171,0,U,37775,999,4461,0,.13E-5,0
BSAT-3C (JCSAT-110R),2011-041B,2026-06-25T23:23:19.575168,1.00272500,.0000314,0.0232,319.3751,161.7267,253.7912,0,U,37776,999,5055,0,-.34E-5,0
