BEIDOU-2 G3             
1 36590U 10024A   26177.11108912 -.00000129  00000+0  00000+0 0  9997
2 36590   4.5373  61.4851 0008089 355.2854 337.1434  1.00271125 58859
BADR-5                  
1 36592U 10025A   26177.17267280  .00000165  00000+0  00000+0 0  9999
2 36592   0.0479 145.3195 0003846  42.9443 178.7366  1.00267191 53308
COMS 1                  
1 36744U 10032A   26176.96023205  .00000058  00000+0  00000+0 0  9990
2 36744   4.8275  75.2556 0011890  13.2572 209.7173  0.99166082 51175
ARABSAT-5A              
1 36745U 10032B   26177.17267280  .00000164  00000+0  00000+0 0  9996
2 36745   0.0691  51.4559 0005633  60.6291 254.8598  1.00271495 58736
ECHOSTAR 15             
1 36792U 10034A   26177.22467948  .00000011  00000+0  00000+0 0  9990
2 36792   0.0123   6.9353 0002233  72.3267 157.1587  1.00272232 58419
BEIDOU-2 IGSO-1         
1 36828U 10036A   26176.90245100 -.00000051  00000+0  00000+0 0  9995
2 36828  54.3048 162.8805 0059012 225.3330 318.2635  1.00269992 58186
NILESAT 201             
1 36830U 10037A   26177.16521942 -.00000047  00000+0  00000+0 0  9994
2 36830   0.0396 143.9554 0005136 336.0609 206.7587  1.00271345 58464
RASCOM-QAF 1R           
1 36831U 10037B   26177.16721278  .00000029  00000+0  00000+0 0  9998
2 36831   0.0191  66.9577 0006598  21.9948 248.4310  1.00271891 58391
AEHF-1 (USA 214)        
1 36868U 10039A   26175.81801973  .00000150  00000+0  00000+0 0  9996
2 36868   8.2384  67.9563 0004229  11.1655 158.4174  1.00279243 53736
XM-5                    
1 37185U 10053A   26176.92997397 -.00000013  00000+0  00000+0 0  9993
2 37185   0.0631 271.4123 0002666 286.2712 295.9726  1.00274842 57576
BSAT-3B                 
1 37207U 10056B   26176.97453212 -.00000339  00000+0  00000+0 0  9990
2 37207   0.0748 245.7608 0001903 280.6181 208.3998  1.00272693 52186
BEIDOU-2 G4             
1 37210U 10057A   26176.84189052 -.00000105  00000+0  00000+0 0  9990
2 37210   3.6689  68.9041 0004806 193.4242 114.7089  1.00271416 57372
SKYTERRA 1              
1 37218U 10061A   26177.16016714 -.00000112  00000+0  00000+0 0  9991
2 37218   5.1440  50.8477 0002443  23.3204 156.4644  1.00272947 57289
HYLAS 1                 
1 37237U 10065A   26175.02596269  .00000093  00000+0  00000+0 0  9994
2 37237   5.6614  72.9389 0001052 336.6605 245.7390  1.00273914  6958
INTELSAT 17 (IS-17)     
1 37238U 10065B   26177.10840243  .00000009  00000+0  00000+0 0  9997
2 37238   0.0086  69.5097 0002464  24.6648 285.0863  1.00271818 53335
BEIDOU-2 IGSO-2         
1 37256U 10068A   26175.67652892 -.00000223  00000+0  00000+0 0  9990
2 37256  47.5326 271.7373 0056042 213.3814 139.3528  1.00281062 56867
EUTELSAT KA-SAT 9A      
1 37258U 10069A   26176.52664043  .00000071  00000+0  00000+0 0  9999
2 37258   0.0599  12.0459 0003724 120.3470 339.8602  1.00270328 44095
HISPASAT 30W-5          
1 37264U 10070A   26177.16543024 -.00000205  00000+0  00000+0 0  9994
2 37264   0.0376 134.6837 0005846 336.3100 192.8387  1.00270028 53276
KOREASAT 6              
1 37265U 10070B   26176.81086448  .00000000  00000+0  00000+0 0  9990
2 37265   0.0256  12.1538 0002715  93.7555 259.8187  1.00270457 56857
BEIDOU-2 IGSO-3         
1 37384U 11013A   26176.54644699 -.00000187  00000+0  00000+0 0  9995
2 37384  62.4191  40.0714 0035058 184.1159 353.6243  1.00266124 55745
INTELSAT 28 (IS-28)     
1 37392U 11016A   26177.19944433 -.00000216  00000+0  00000+0 0  9991
2 37392   1.8295  82.5212 0004006  11.1010 220.7734  1.00271814 53372
YAHSAT 1A               
1 37393U 11016B   26176.74923894  .00000000  00000+0  00000+0 0  9990
2 37393   0.0232  24.8604 0003780  85.6545 125.5822  1.00269060 42497
SBIRS GEO-1 (USA 230)   
1 37481U 11019A   26177.17691949  .00000106  00000+0  00000+0 0  9999
2 37481   4.5552  53.1193 0001947  34.9555 301.7212  1.00272346 55483
TELSTAR 14R             
1 37602U 11021A   26177.08288742 -.00000269  00000+0  00000+0 0  9991
2 37602   0.0414  80.0369 0002410 350.2021 170.8224  1.00271814 55924
GSAT-8                  
1 37605U 11022A   26177.17752617  .00000094  00000+0  00000+0 0  9997
2 37605   2.1543  81.7242 0001659 186.2275 125.3313  1.00272810 53304
ST-2                    
1 37606U 11022B   26177.04148514  .00000000  00000+0  00000+0 0  9996
2 37606   0.0222   4.0070 0001771  95.2733 277.8284  1.00271860 55368
ZHONGXING-10            
1 37677U 11026A   26177.11212913 -.00000179  00000+0  00000+0 0  9999
2 37677   1.0706  84.1182 0003718   5.0562 310.9472  1.00273005 55089
SES-3                   
1 37748U 11035A   26177.16016714 -.00000092  00000+0  00000+0 0  9998
2 37748   1.3500  83.0010 0002575   4.3036 141.6306  1.00269473 54683
KAZSAT-2                
1 37749U 11035B   26176.60947595 -.00000187  00000+0  00000+0 0  9992
2 37749   0.0032 310.5968 0001695 194.7433  74.3197  1.00269411 53486
BEIDOU-2 IGSO-4         
1 37763U 11038A   26176.69088127  .00000031  00000+0  00000+0 0  9994
2 37763  54.6027 165.5967 0159513 231.5189 219.1661  1.00283882 54731
ASTRA 1N                
1 37775U 11041A   26177.17041947  .00000130  00000+0  00000+0 0  9994
2 37775   0.0802  36.6843 0005903  58.2315 259.9171  1.00270091 44611
BSAT-3C (JCSAT-110R)    
1 37776U 11041B   26176.97453212 -.00000340  00000+0  00000+0 0  9998
2 37776   0.0232 319.3751 0000314 161.7267 253.7912  1.00272500 50557
